TIANMU-1 08             
1 57400U 23101B   26066.00237819  .00000346  00000+0  14775-4 0  9993
2 57400  97.2717 118.7901 0006380 134.2174 225.9592 15.29204229146020
STARLINK-31242          
1 58864U 24019M   26068.56703941  .00003035  00000+0  11980-3 0  9996
2 58864  43.0025 249.6197 0001672 266.6123  93.4538 15.27574666119065
